[{"OBJECT_NAME":"POLYITAN-1","OBJECT_ID":"2014-033AJ","EPOCH":"2026-03-09T22:27:50.258304","MEAN_MOTION":15.29568085,"ECCENTRICITY":0.00093607,"INCLINATION":98.1053,"RA_OF_ASC_NODE":86.0432,"ARG_OF_PERICENTER":127.248,"MEAN_ANOMALY":232.9614,"EPHEMERIS_TYPE":0,"CLASSIFICATION_TYPE":"U","NORAD_CAT_ID":40042,"ELEMENT_SET_NO":999,"REV_AT_EPOCH":63840,"BSTAR":0.00083772474,"MEAN_MOTION_DOT":0.00024003,"MEAN_MOTION_DDOT":0},{"OBJECT_NAME":"STARLINK-32306","OBJECT_ID":"2024-183M","EPOCH":"2026-03-09T11:36:05.913792","MEAN_MOTION":15.30188628,"ECCENTRICITY":0.00011584,"INCLINATION":53.1599,"RA_OF_ASC_NODE":143.2003,"ARG_OF_PERICENTER":69.6853,"MEAN_ANOMALY":290.4272,"EPHEMERIS_TYPE":0,"CLASSIFICATION_TYPE":"U","NORAD_CAT_ID":61520,"ELEMENT_SET_NO":999,"REV_AT_EPOCH":7962,"BSTAR":8.1752832e-5,"MEAN_MOTION_DOT":2.062e-5,"MEAN_MOTION_DDOT":0}]
